STARLINK-31877          
1 59675U 24084X   25210.08026471  .00000208  00000+0  17083-4 0  9990
2 59675  43.0000 224.7323 0000920 275.1709  84.9038 15.27570008 70145
STARLINK-31884          
1 59676U 24084Y   25209.41483856 -.00000482  00000+0 -79930-5 0  9996
2 59676  42.9997 228.3622 0001144 272.3492  87.7228 15.27574344 70079
STARLINK-32108          
1 59682U 24086A   25209.56851650 -.00000364  00000+0 -37129-5 0  9995
2 59682  43.0015 249.2204 0001572 271.9325  88.1347 15.27574884 69784
STARLINK-32080          
1 59683U 24086B   25209.45959140  .00000340  00000+0  21882-4 0  9997
2 59683  43.0003 250.1271 0001385 279.1864  80.8831 15.27577376 69783
STARLINK-32091          
1 59684U 24086C   25209.77240460 -.00004729  00000+0 -16233-3 0  9991
2 59684  42.9988 236.9618 0001352 269.8055  90.2642 15.27598599 69878
STARLINK-32085          
1 59685U 24086D   25209.49077513 -.00000514  00000+0 -91612-5 0  9992
2 59685  43.0030 246.0702 0001254 301.5023  58.5707 15.27572966 69829
STARLINK-32100          
1 59686U 24086E   25209.51227742  .00000026  00000+0  10467-4 0  9991
2 59686  43.0029 227.8188 0001660 274.0314  86.0348 15.27573154 70033
STARLINK-32089          
1 59687U 24086F   25209.40996168  .00000193  00000+0  16542-4 0  9990
2 59687  43.0008 246.3238 0001117 279.1313  80.9412 15.27577001 69819
STARLINK-32103          
1 59688U 24086G   25209.54090575  .00003087  00000+0  12162-3 0  9991
2 59688  43.0003 235.2060 0001511 271.9079  88.1599 15.27586172 69952
STARLINK-32105          
1 59689U 24086H   25210.12278397 -.00002263  00000+0 -72719-4 0  9990
2 59689  43.0011 242.2119 0000771 296.7969  63.2804 15.27592662 69847
STARLINK-32106          
1 59690U 24086J   25209.76084390 -.00006002  00000+0 -20868-3 0  9990
2 59690  43.0006 236.8745 0002138 281.3627  78.6984 15.27590782 69870
STARLINK-32090          
1 59691U 24086K   25209.45573746  .00000878  00000+0  41439-4 0  9996
2 59691  43.0000 250.1218 0001275 272.5737  87.4968 15.27573721 69777
STARLINK-32088          
1 59693U 24086M   25209.37623826 -.00000527  00000+0 -96376-5 0  9998
2 59693  42.9987 239.1466 0001123 271.5417  88.5306 15.27572797 69892
STARLINK-32107          
1 59694U 24086N   25209.57414816  .00000074  00000+0  12194-4 0  9998
2 59694  43.0000 245.8318 0001198 265.6194  94.4520 15.27576026 69836
STARLINK-32104          
1 59695U 24086P   25209.37717317  .00000136  00000+0  14454-4 0  9999
2 59695  43.0005 243.4050 0001483 272.2119  87.8563 15.27577540 69843
STARLINK-32094          
1 59696U 24086Q   25209.44720314  .00002987  00000+0  11797-3 0  9991
2 59696  43.0018 246.5991 0001537 283.5963  76.4717 15.27596882 69810
STARLINK-32099          
1 59697U 24086R   25209.53816020  .00002412  00000+0  97156-4 0  9999
2 59697  43.0005 245.5649 0001334 281.4177  78.6524 15.27577159 69754
