[{"OBJECT_NAME":"STARLINK-31877","OBJECT_ID":"2024-084X","EPOCH":"2025-07-29T01:55:34.870944","MEAN_MOTION":15.27570008,"ECCENTRICITY":9.2e-5,"INCLINATION":43,"RA_OF_ASC_NODE":224.7323,"ARG_OF_PERICENTER":275.1709,"MEAN_ANOMALY":84.9038,"EPHEMERIS_TYPE":0,"CLASSIFICATION_TYPE":"U","NORAD_CAT_ID":59675,"ELEMENT_SET_NO":999,"REV_AT_EPOCH":7014,"BSTAR":1.7083e-5,"MEAN_MOTION_DOT":2.08e-6,"MEAN_MOTION_DDOT":0},{"OBJECT_NAME":"STARLINK-31884","OBJECT_ID":"2024-084Y","EPOCH":"2025-07-28T09:57:22.051584","MEAN_MOTION":15.27574344,"ECCENTRICITY":0.0001144,"INCLINATION":42.9997,"RA_OF_ASC_NODE":228.3622,"ARG_OF_PERICENTER":272.3492,"MEAN_ANOMALY":87.7228,"EPHEMERIS_TYPE":0,"CLASSIFICATION_TYPE":"U","NORAD_CAT_ID":59676,"ELEMENT_SET_NO":999,"REV_AT_EPOCH":7007,"BSTAR":-7.993e-6,"MEAN_MOTION_DOT":-4.82e-6,"MEAN_MOTION_DDOT":0},{"OBJECT_NAME":"STARLINK-32108","OBJECT_ID":"2024-086A","EPOCH":"2025-07-28T13:38:39.825600","MEAN_MOTION":15.27574884,"ECCENTRICITY":0.0001572,"INCLINATION":43.0015,"RA_OF_ASC_NODE":249.2204,"ARG_OF_PERICENTER":271.9325,"MEAN_ANOMALY":88.1347,"EPHEMERIS_TYPE":0,"CLASSIFICATION_TYPE":"U","NORAD_CAT_ID":59682,"ELEMENT_SET_NO":999,"REV_AT_EPOCH":6978,"BSTAR":-3.7129e-6,"MEAN_MOTION_DOT":-3.64e-6,"MEAN_MOTION_DDOT":0},{"OBJECT_NAME":"STARLINK-32080","OBJECT_ID":"2024-086B","EPOCH":"2025-07-28T11:01:48.696960","MEAN_MOTION":15.27577376,"ECCENTRICITY":0.0001385,"INCLINATION":43.0003,"RA_OF_ASC_NODE":250.1271,"ARG_OF_PERICENTER":279.1864,"MEAN_ANOMALY":80.8831,"EPHEMERIS_TYPE":0,"CLASSIFICATION_TYPE":"U","NORAD_CAT_ID":59683,"ELEMENT_SET_NO":999,"REV_AT_EPOCH":6978,"BSTAR":2.1882e-5,"MEAN_MOTION_DOT":3.4e-6,"MEAN_MOTION_DDOT":0},{"OBJECT_NAME":"STARLINK-32091","OBJECT_ID":"2024-086C","EPOCH":"2025-07-28T18:32:15.757440","MEAN_MOTION":15.27598599,"ECCENTRICITY":0.0001352,"INCLINATION":42.9988,"RA_OF_ASC_NODE":236.9618,"ARG_OF_PERICENTER":269.8055,"MEAN_ANOMALY":90.2642,"EPHEMERIS_TYPE":0,"CLASSIFICATION_TYPE":"U","NORAD_CAT_ID":59684,"ELEMENT_SET_NO":999,"REV_AT_EPOCH":6987,"BSTAR":-0.00016233,"MEAN_MOTION_DOT":-4.729e-5,"MEAN_MOTION_DDOT":0},{"OBJECT_NAME":"STARLINK-32085","OBJECT_ID":"2024-086D","EPOCH":"2025-07-28T11:46:42.971232","MEAN_MOTION":15.27572966,"ECCENTRICITY":0.0001254,"INCLINATION":43.003,"RA_OF_ASC_NODE":246.0702,"ARG_OF_PERICENTER":301.5023,"MEAN_ANOMALY":58.5707,"EPHEMERIS_TYPE":0,"CLASSIFICATION_TYPE":"U","NORAD_CAT_ID":59685,"ELEMENT_SET_NO":999,"REV_AT_EPOCH":6982,"BSTAR":-9.1612e-6,"MEAN_MOTION_DOT":-5.14e-6,"MEAN_MOTION_DDOT":0},{"OBJECT_NAME":"STARLINK-32100","OBJECT_ID":"2024-086E","EPOCH":"2025-07-28T12:17:40.769088","MEAN_MOTION":15.27573154,"ECCENTRICITY":0.000166,"INCLINATION":43.0029,"RA_OF_ASC_NODE":227.8188,"ARG_OF_PERICENTER":274.0314,"MEAN_ANOMALY":86.0348,"EPHEMERIS_TYPE":0,"CLASSIFICATION_TYPE":"U","NORAD_CAT_ID":59686,"ELEMENT_SET_NO":999,"REV_AT_EPOCH":7003,"BSTAR":1.0467e-5,"MEAN_MOTION_DOT":2.6e-7,"MEAN_MOTION_DDOT":0},{"OBJECT_NAME":"STARLINK-32089","OBJECT_ID":"2024-086F","EPOCH":"2025-07-28T09:50:20.689152","MEAN_MOTION":15.27577001,"ECCENTRICITY":0.0001117,"INCLINATION":43.0008,"RA_OF_ASC_NODE":246.3238,"ARG_OF_PERICENTER":279.1313,"MEAN_ANOMALY":80.9412,"EPHEMERIS_TYPE":0,"CLASSIFICATION_TYPE":"U","NORAD_CAT_ID":59687,"ELEMENT_SET_NO":999,"REV_AT_EPOCH":6981,"BSTAR":1.6542e-5,"MEAN_MOTION_DOT":1.93e-6,"MEAN_MOTION_DDOT":0},{"OBJECT_NAME":"STARLINK-32103","OBJECT_ID":"2024-086G","EPOCH":"2025-07-28T12:58:54.256800","MEAN_MOTION":15.27586172,"ECCENTRICITY":0.0001511,"INCLINATION":43.0003,"RA_OF_ASC_NODE":235.206,"ARG_OF_PERICENTER":271.9079,"MEAN_ANOMALY":88.1599,"EPHEMERIS_TYPE":0,"CLASSIFICATION_TYPE":"U","NORAD_CAT_ID":59688,"ELEMENT_SET_NO":999,"REV_AT_EPOCH":6995,"BSTAR":0.00012162,"MEAN_MOTION_DOT":3.087e-5,"MEAN_MOTION_DDOT":0},{"OBJECT_NAME":"STARLINK-32105","OBJECT_ID":"2024-086H","EPOCH":"2025-07-29T02:56:48.535008","MEAN_MOTION":15.27592662,"ECCENTRICITY":7.71e-5,"INCLINATION":43.0011,"RA_OF_ASC_NODE":242.2119,"ARG_OF_PERICENTER":296.7969,"MEAN_ANOMALY":63.2804,"EPHEMERIS_TYPE":0,"CLASSIFICATION_TYPE":"U","NORAD_CAT_ID":59689,"ELEMENT_SET_NO":999,"REV_AT_EPOCH":6984,"BSTAR":-7.2719e-5,"MEAN_MOTION_DOT":-2.263e-5,"MEAN_MOTION_DDOT":0},{"OBJECT_NAME":"STARLINK-32106","OBJECT_ID":"2024-086J","EPOCH":"2025-07-28T18:15:36.912960","MEAN_MOTION":15.27590782,"ECCENTRICITY":0.0002138,"INCLINATION":43.0006,"RA_OF_ASC_NODE":236.8745,"ARG_OF_PERICENTER":281.3627,"MEAN_ANOMALY":78.6984,"EPHEMERIS_TYPE":0,"CLASSIFICATION_TYPE":"U","NORAD_CAT_ID":59690,"ELEMENT_SET_NO":999,"REV_AT_EPOCH":6987,"BSTAR":-0.00020868,"MEAN_MOTION_DOT":-6.002e-5,"MEAN_MOTION_DDOT":0},{"OBJECT_NAME":"STARLINK-32090","OBJECT_ID":"2024-086K","EPOCH":"2025-07-28T10:56:15.716544","MEAN_MOTION":15.27573721,"ECCENTRICITY":0.0001275,"INCLINATION":43,"RA_OF_ASC_NODE":250.1218,"ARG_OF_PERICENTER":272.5737,"MEAN_ANOMALY":87.4968,"EPHEMERIS_TYPE":0,"CLASSIFICATION_TYPE":"U","NORAD_CAT_ID":59691,"ELEMENT_SET_NO":999,"REV_AT_EPOCH":6977,"BSTAR":4.1439e-5,"MEAN_MOTION_DOT":8.78e-6,"MEAN_MOTION_DDOT":0},{"OBJECT_NAME":"STARLINK-32088","OBJECT_ID":"2024-086M","EPOCH":"2025-07-28T09:01:46.985664","MEAN_MOTION":15.27572797,"ECCENTRICITY":0.0001123,"INCLINATION":42.9987,"RA_OF_ASC_NODE":239.1466,"ARG_OF_PERICENTER":271.5417,"MEAN_ANOMALY":88.5306,"EPHEMERIS_TYPE":0,"CLASSIFICATION_TYPE":"U","NORAD_CAT_ID":59693,"ELEMENT_SET_NO":999,"REV_AT_EPOCH":6989,"BSTAR":-9.6376e-6,"MEAN_MOTION_DOT":-5.27e-6,"MEAN_MOTION_DDOT":0},{"OBJECT_NAME":"STARLINK-32107","OBJECT_ID":"2024-086N","EPOCH":"2025-07-28T13:46:46.401024","MEAN_MOTION":15.27576026,"ECCENTRICITY":0.0001198,"INCLINATION":43,"RA_OF_ASC_NODE":245.8318,"ARG_OF_PERICENTER":265.6194,"MEAN_ANOMALY":94.452,"EPHEMERIS_TYPE":0,"CLASSIFICATION_TYPE":"U","NORAD_CAT_ID":59694,"ELEMENT_SET_NO":999,"REV_AT_EPOCH":6983,"BSTAR":1.2194e-5,"MEAN_MOTION_DOT":7.4e-7,"MEAN_MOTION_DDOT":0},{"OBJECT_NAME":"STARLINK-32104","OBJECT_ID":"2024-086P","EPOCH":"2025-07-28T09:03:07.761888","MEAN_MOTION":15.2757754,"ECCENTRICITY":0.0001483,"INCLINATION":43.0005,"RA_OF_ASC_NODE":243.405,"ARG_OF_PERICENTER":272.2119,"MEAN_ANOMALY":87.8563,"EPHEMERIS_TYPE":0,"CLASSIFICATION_TYPE":"U","NORAD_CAT_ID":59695,"ELEMENT_SET_NO":999,"REV_AT_EPOCH":6984,"BSTAR":1.4454e-5,"MEAN_MOTION_DOT":1.36e-6,"MEAN_MOTION_DDOT":0},{"OBJECT_NAME":"STARLINK-32094","OBJECT_ID":"2024-086Q","EPOCH":"2025-07-28T10:43:58.351296","MEAN_MOTION":15.27596882,"ECCENTRICITY":0.0001537,"INCLINATION":43.0018,"RA_OF_ASC_NODE":246.5991,"ARG_OF_PERICENTER":283.5963,"MEAN_ANOMALY":76.4717,"EPHEMERIS_TYPE":0,"CLASSIFICATION_TYPE":"U","NORAD_CAT_ID":59696,"ELEMENT_SET_NO":999,"REV_AT_EPOCH":6981,"BSTAR":0.00011797,"MEAN_MOTION_DOT":2.987e-5,"MEAN_MOTION_DDOT":0},{"OBJECT_NAME":"STARLINK-32099","OBJECT_ID":"2024-086R","EPOCH":"2025-07-28T12:54:57.041280","MEAN_MOTION":15.27577159,"ECCENTRICITY":0.0001334,"INCLINATION":43.0005,"RA_OF_ASC_NODE":245.5649,"ARG_OF_PERICENTER":281.4177,"MEAN_ANOMALY":78.6524,"EPHEMERIS_TYPE":0,"CLASSIFICATION_TYPE":"U","NORAD_CAT_ID":59697,"ELEMENT_SET_NO":999,"REV_AT_EPOCH":6975,"BSTAR":9.7156e-5,"MEAN_MOTION_DOT":2.412e-5,"MEAN_MOTION_DDOT":0}]
